{"type": "FeatureCollection", "features": [ {"type": "Feature", "properties": {"norad_id": 29906, "name": "FENGYUN 1C DEB", "group": "fengyun-1c-debris", "lat": -30.131019140818548, "lon": -90.71903747588031, "alt_km": 724.959364262475, "timestamp": "2025-12-16T21:38:57.446560+00:00", "meta": {"OBJECT_NAME": "FENGYUN 1C DEB", "OBJECT_ID": "1999-025HC", "EPOCH": "2025-12-16T05:46:35.866560", "MEAN_MOTION": 14.49704028, "ECCENTRICITY": 0.00368757, "INCLINATION": 98.7053, "RA_OF_ASC_NODE": 93.7002, "ARG_OF_PERICENTER": 138.9785, "MEAN_ANOMALY": 221.4192, "EPHEMERIS_TYPE": 0, "CLASSIFICATION_TYPE": "U", "NORAD_CAT_ID": 29906, "ELEMENT_SET_NO": 999, "REV_AT_EPOCH": 98208, "BSTAR": 0.0015967268, "MEAN_MOTION_DOT": 6.155e-05, "MEAN_MOTION_DDOT": 0}, "tle": {"line1": "1 29906U 99025HC  25350.24069290  .00006155  00000+0  15967-2 0  9994", "line2": "2 29906  98.7053  93.7002 0036875 138.9785 221.4192 14.49704028982088"}}, "geometry": {"type": "Point", "coordinates": [-90.71903747588031, -30.131019140818548]}}, {"type": "Feature", "properties": {"norad_id": 29907, "name": "FENGYUN 1C DEB", "group": "fengyun-1c-debris", "lat": 33.615714893256786, "lon": -116.2346517705539, "alt_km": 853.1828131815682, "timestamp": "2025-12-16T21:38:57.446570+00:00", "meta": {"OBJECT_NAME": "FENGYUN 1C DEB", "OBJECT_ID": "1999-025HD", "EPOCH": "2025-12-16T04:12:27.996192", "MEAN_MOTION": 14.11653093, "ECCENTRICITY": 0.0084195, "INCLINATION": 99.1118, "RA_OF_ASC_NODE": 56.903, "ARG_OF_PERICENTER": 239.8836, "MEAN_ANOMALY": 175.7156, "EPHEMERIS_TYPE": 0, "CLASSIFICATION_TYPE": "U", "NORAD_CAT_ID": 29907, "ELEMENT_SET_NO": 999, "REV_AT_EPOCH": 96647, "BSTAR": 0.0011616106, "MEAN_MOTION_DOT": 2.138e-05, "MEAN_MOTION_DDOT": 0}, "tle": {"line1": "1 29907U 99025HD  25350.17532403  .00002138  00000+0  11616-2 0  9992", "line2": "2 29907  99.1118  56.9030 0084195 239.8836 175.7156 14.11653093966474"}}, "geometry": {"type": "Point", "coordinates": [-116.2346517705539, 33.615714893256786]}}, {"type": "Feature", "properties": {"norad_id": 29909, "name": "FENGYUN 1C DEB", "group": "fengyun-1c-debris", "lat": 7.7677897714902695, "lon": 93.654450979839, "alt_km": 683.7386681859662, "timestamp": "2025-12-16T21:38:57.446580+00:00", "meta": {"OBJECT_NAME": "FENGYUN 1C DEB", "OBJECT_ID": "1999-025HF", "EPOCH": "2025-12-16T07:02:40.064928", "MEAN_MOTION": 14.55185711, "ECCENTRICITY": 0.00381388, "INCLINATION": 98.6348, "RA_OF_ASC_NODE": 94.2136, "ARG_OF_PERICENTER": 4.0619, "MEAN_ANOMALY": 57.8102, "EPHEMERIS_TYPE": 0, "CLASSIFICATION_TYPE": "U", "NORAD_CAT_ID": 29909, "ELEMENT_SET_NO": 999, "REV_AT_EPOCH": 98457, "BSTAR": 0.0013833849, "MEAN_MOTION_DOT": 5.993e-05, "MEAN_MOTION_DDOT": 0}, "tle": {"line1": "1 29909U 99025HF  25350.29351927  .00005993  00000+0  13834-2 0  9993", "line2": "2 29909  98.6348  94.2136 0038138   4.0619  57.8102 14.55185711984571"}}, "geometry": {"type": "Point", "coordinates": [93.654450979839, 7.7677897714902695]}}, {"type": "Feature", "properties": {"norad_id": 29911, "name": "FENGYUN 1C DEB", "group": "fengyun-1c-debris", "lat": -29.52595027458633, "lon": 38.92803877802831, "alt_km": 854.4967805103142, "timestamp": "2025-12-16T21:38:57.446590+00:00", "meta": {"OBJECT_NAME": "FENGYUN 1C DEB", "OBJECT_ID": "1999-025HH", "EPOCH": "2025-12-16T01:46:19.878816", "MEAN_MOTION": 14.18865289, "ECCENTRICITY": 0.00274785, "INCLINATION": 98.7157, "RA_OF_ASC_NODE": 33.1298, "ARG_OF_PERICENTER": 141.7218, "MEAN_ANOMALY": 280.4764, "EPHEMERIS_TYPE": 0, "CLASSIFICATION_TYPE": "U", "NORAD_CAT_ID": 29911, "ELEMENT_SET_NO": 999, "REV_AT_EPOCH": 97478, "BSTAR": 0.00061439593, "MEAN_MOTION_DOT": 1.24e-05, "MEAN_MOTION_DDOT": 0}, "tle": {"line1": "1 29911U 99025HH  25350.07384119  .00001240  00000+0  61440-3 0  9999", "line2": "2 29911  98.7157  33.1298 0027478 141.7218 280.4764 14.18865289974787"}}, "geometry": {"type": "Point", "coordinates": [38.92803877802831, -29.52595027458633]}}, {"type": "Feature", "properties": {"norad_id": 29912, "name": "FENGYUN 1C DEB", "group": "fengyun-1c-debris", "lat": -68.39473971588744, "lon": 111.31025719168615, "alt_km": 751.8516160932923, "timestamp": "2025-12-16T21:38:57.446600+00:00", "meta": {"OBJECT_NAME": "FENGYUN 1C DEB", "OBJECT_ID": "1999-025HJ", "EPOCH": "2025-12-16T03:59:44.737728", "MEAN_MOTION": 14.4303162, "ECCENTRICITY": 0.00431665, "INCLINATION": 98.7392, "RA_OF_ASC_NODE": 87.7009, "ARG_OF_PERICENTER": 209.0352, "MEAN_ANOMALY": 221.35, "EPHEMERIS_TYPE": 0, "CLASSIFICATION_TYPE": "U", "NORAD_CAT_ID": 29912, "ELEMENT_SET_NO": 999, "REV_AT_EPOCH": 98088, "BSTAR": 0.0015436713, "MEAN_MOTION_DOT": 5.187e-05, "MEAN_MOTION_DDOT": 0}, "tle": {"line1": "1 29912U 99025HJ  25350.16649002  .00005187  00000+0  15437-2 0  9993", "line2": "2 29912  98.7392  87.7009 0043166 209.0352 221.3500 14.43031620980885"}}, "geometry": {"type": "Point", "coordinates": [111.31025719168615, -68.39473971588744]}}, {"type": "Feature", "properties": {"norad_id": 29913, "name": "FENGYUN 1C DEB", "group": "fengyun-1c-debris", "lat": -45.00748119734937, "lon": 160.7382873236178, "alt_km": 837.7290938566157, "timestamp": "2025-12-16T21:38:57.446610+00:00", "meta": {"OBJECT_NAME": "FENGYUN 1C DEB", "OBJECT_ID": "1999-025HK", "EPOCH": "2025-12-15T22:41:01.963968", "MEAN_MOTION": 14.0738612, "ECCENTRICITY": 0.0061868, "INCLINATION": 98.7877, "RA_OF_ASC_NODE": 348.7087, "ARG_OF_PERICENTER": 262.2845, "MEAN_ANOMALY": 158.2265, "EPHEMERIS_TYPE": 0, "CLASSIFICATION_TYPE": "U", "NORAD_CAT_ID": 29913, "ELEMENT_SET_NO": 999, "REV_AT_EPOCH": 97010, "BSTAR": 0.00042014534, "MEAN_MOTION_DOT": 6.75e-06, "MEAN_MOTION_DDOT": 0}, "tle": {"line1": "1 29913U 99025HK  25349.94516162  .00000675  00000+0  42015-3 0  9998", "line2": "2 29913  98.7877 348.7087 0061868 262.2845 158.2265 14.07386120970105"}}, "geometry": {"type": "Point", "coordinates": [160.7382873236178, -45.00748119734937]}}, {"type": "Feature", "properties": {"norad_id": 29914, "name": "FENGYUN 1C DEB", "group": "fengyun-1c-debris", "lat": -56.42936048660028, "lon": 32.92960811432866, "alt_km": 915.1854110112372, "timestamp": "2025-12-16T21:38:57.446621+00:00", "meta": {"OBJECT_NAME": "FENGYUN 1C DEB", "OBJECT_ID": "1999-025HL", "EPOCH": "2025-12-16T08:19:59.528928", "MEAN_MOTION": 14.03133039, "ECCENTRICITY": 0.00367171, "INCLINATION": 98.8441, "RA_OF_ASC_NODE": 18.8225, "ARG_OF_PERICENTER": 105.1023, "MEAN_ANOMALY": 276.5306, "EPHEMERIS_TYPE": 0, "CLASSIFICATION_TYPE": "U", "NORAD_CAT_ID": 29914, "ELEMENT_SET_NO": 999, "REV_AT_EPOCH": 96837, "BSTAR": -3.59359e-07, "MEAN_MOTION_DOT": -4.3e-07, "MEAN_MOTION_DDOT": 0}, "tle": {"line1": "1 29914U 99025HL  25350.34721677 -.00000043  00000+0 -35936-6 0  9992", "line2": "2 29914  98.8441  18.8225 0036717 105.1023 276.5306 14.03133039968372"}}, "geometry": {"type": "Point", "coordinates": [32.92960811432866, -56.42936048660028]}}, {"type": "Feature", "properties": {"norad_id": 29916, "name": "FENGYUN 1C DEB", "group": "fengyun-1c-debris", "lat": -23.906210215499826, "lon": 13.99763148181604, "alt_km": 1039.5556530058348, "timestamp": "2025-12-16T21:38:57.446631+00:00", "meta": {"OBJECT_NAME": "FENGYUN 1C DEB", "OBJECT_ID": "1999-025HN", "EPOCH": "2025-12-15T12:56:07.435680", "MEAN_MOTION": 13.56987748, "ECCENTRICITY": 0.02712929, "INCLINATION": 99.1947, "RA_OF_ASC_NODE": 8.6054, "ARG_OF_PERICENTER": 251.3463, "MEAN_ANOMALY": 266.0483, "EPHEMERIS_TYPE": 0, "CLASSIFICATION_TYPE": "U", "NORAD_CAT_ID": 29916, "ELEMENT_SET_NO": 999, "REV_AT_EPOCH": 93490, "BSTAR": 0.00071104375, "MEAN_MOTION_DOT": 5.99e-06, "MEAN_MOTION_DDOT": 0}, "tle": {"line1": "1 29916U 99025HN  25349.53897495  .00000599  00000+0  71104-3 0  9993", "line2": "2 29916  99.1947   8.6054 0271292 251.3463 266.0483 13.56987748934900"}}, "geometry": {"type": "Point", "coordinates": [13.99763148181604, -23.906210215499826]}}, {"type": "Feature", "properties": {"norad_id": 29917, "name": "FENGYUN 1C DEB", "group": "fengyun-1c-debris", "lat": -80.0497412520201, "lon": -30.749546350868265, "alt_km": 1150.0670894747645, "timestamp": "2025-12-16T21:38:57.446641+00:00", "meta": {"OBJECT_NAME": "FENGYUN 1C DEB", "OBJECT_ID": "1999-025HP", "EPOCH": "2025-12-16T08:57:39.330432", "MEAN_MOTION": 13.7041963, "ECCENTRICITY": 0.02230115, "INCLINATION": 98.8767, "RA_OF_ASC_NODE": 211.7355, "ARG_OF_PERICENTER": 114.7116, "MEAN_ANOMALY": 62.7013, "EPHEMERIS_TYPE": 0, "CLASSIFICATION_TYPE": "U", "NORAD_CAT_ID": 29917, "ELEMENT_SET_NO": 999, "REV_AT_EPOCH": 94180, "BSTAR": 0.0011539633, "MEAN_MOTION_DOT": 1.179e-05, "MEAN_MOTION_DDOT": 0}, "tle": {"line1": "1 29917U 99025HP  25350.37337188  .00001179  00000+0  11540-2 0  9998", "line2": "2 29917  98.8767 211.7355 0223011 114.7116  62.7013 13.70419630941804"}}, "geometry": {"type": "Point", "coordinates": [-30.749546350868265, -80.0497412520201]}}, {"type": "Feature", "properties": {"norad_id": 29918, "name": "FENGYUN 1C DEB", "group": "fengyun-1c-debris", "lat": -41.235931109838404, "lon": 81.28821818489361, "alt_km": 777.1408029653721, "timestamp": "2025-12-16T21:38:57.446651+00:00", "meta": {"OBJECT_NAME": "FENGYUN 1C DEB", "OBJECT_ID": "1999-025HQ", "EPOCH": "2025-12-16T05:22:52.747968", "MEAN_MOTION": 14.33627649, "ECCENTRICITY": 0.00130298, "INCLINATION": 98.8549, "RA_OF_ASC_NODE": 72.7412, "ARG_OF_PERICENTER": 305.0595, "MEAN_ANOMALY": 116.8012, "EPHEMERIS_TYPE": 0, "CLASSIFICATION_TYPE": "U", "NORAD_CAT_ID": 29918, "ELEMENT_SET_NO": 999, "REV_AT_EPOCH": 97844, "BSTAR": 0.0010638776, "MEAN_MOTION_DOT": 2.905e-05, "MEAN_MOTION_DDOT": 0}, "tle": {"line1": "1 29918U 99025HQ  25350.22422162  .00002905  00000+0  10639-2 0  9996", "line2": "2 29918  98.8549  72.7412 0013029 305.0595 116.8012 14.33627649978445"}}, "geometry": {"type": "Point", "coordinates": [81.28821818489361, -41.235931109838404]}}]}